O3B MPOWER F1           
1 54755U 22174A   26198.13492317 -.00000025  00000+0  00000+0 0  9994
2 54755   0.0490 339.2763 0006649 146.9495 248.0044  5.00114739 66854
O3B MPOWER F2           
1 54756U 22174B   26198.09376505 -.00000025  00000+0  00000+0 0  9990
2 54756   0.0449 339.8300 0005782 130.3030 249.9252  5.00114899 66949
O3B MPOWER F4           
1 56367U 23059A   26197.35842944 -.00000025  00000+0  00000+0 0  9996
2 56367   0.0629 349.7471 0007732 128.2686 242.0585  5.00115393 60068
O3B MPOWER F3           
1 56368U 23059B   26197.99122994 -.00000025  00000+0  00000+0 0  9993
2 56368   0.0636 348.8691 0006661 123.0339 248.1638  5.00116408 56215
O3B MPOWER F5           
1 58346U 23175A   26197.29266757 -.00000025  00000+0  00000+0 0  9999
2 58346   0.0524   9.1024 0005522 123.8848 227.0551  5.00115806 50893
O3B MPOWER F6           
1 58347U 23175B   26198.19270616 -.00000025  00000+0  00000+0 0  9999
2 58347   0.0542   0.6059 0004431 113.7886 245.6477  5.00115762 49843
O3B MPOWER F7           
1 62362U 24244A   26198.05921866 -.00000025  00000+0  00000+0 0  9994
2 62362   0.0658 342.5208 0005926 128.9251 248.6133  5.00115306 28024
O3B MPOWER F8           
1 62363U 24244B   26197.82627936 -.00000025  00000+0  00000+0 0  9990
2 62363   0.0146   6.3593 0005740  97.6143 256.0862  5.00115000 22358
O3B MPOWER F9           
1 64866U 25153A   26196.36042618 -.00000024  00000+0  00000+0 0  9995
2 64866   0.0613   5.5162 0006731 126.6630 227.8743  5.00115544 20978
O3B MPOWER F10          
1 64867U 25153B   26198.12549498 -.00000025  00000+0  00000+0 0  9991
2 64867   0.0585   1.8632 0002466 245.7787 112.3279  5.00114925 23523
