{"fetched_at":"2026-07-17T17:38:28.632Z","source":"https://celestrak.org/NORAD/elements/gp.php?NAME=O3B&FORMAT=JSON","constellation":"o3b-mpower","records":[{"OBJECT_NAME":"O3B MPOWER F1","OBJECT_ID":"2022-174A","EPOCH":"2026-07-17T03:14:17.361888","CLASSIFICATION_TYPE":"U","MEAN_MOTION":5.00114739,"ECCENTRICITY":0.00066492,"INCLINATION":0.049,"RA_OF_ASC_NODE":339.2763,"ARG_OF_PERICENTER":146.9495,"MEAN_ANOMALY":248.0044,"EPHEMERIS_TYPE":0,"NORAD_CAT_ID":54755,"ELEMENT_SET_NO":999,"REV_AT_EPOCH":6685,"BSTAR":0,"MEAN_MOTION_DOT":-2.5e-7,"MEAN_MOTION_DDOT":0},{"OBJECT_NAME":"O3B MPOWER F2","OBJECT_ID":"2022-174B","EPOCH":"2026-07-17T02:15:01.300320","CLASSIFICATION_TYPE":"U","MEAN_MOTION":5.00114899,"ECCENTRICITY":0.00057822,"INCLINATION":0.0449,"RA_OF_ASC_NODE":339.83,"ARG_OF_PERICENTER":130.303,"MEAN_ANOMALY":249.9252,"EPHEMERIS_TYPE":0,"NORAD_CAT_ID":54756,"ELEMENT_SET_NO":999,"REV_AT_EPOCH":6694,"BSTAR":0,"MEAN_MOTION_DOT":-2.5e-7,"MEAN_MOTION_DDOT":0},{"OBJECT_NAME":"O3B MPOWER F4","OBJECT_ID":"2023-059A","EPOCH":"2026-07-16T08:36:08.303616","CLASSIFICATION_TYPE":"U","MEAN_MOTION":5.00115393,"ECCENTRICITY":0.0007732,"INCLINATION":0.0629,"RA_OF_ASC_NODE":349.7471,"ARG_OF_PERICENTER":128.2686,"MEAN_ANOMALY":242.0585,"EPHEMERIS_TYPE":0,"NORAD_CAT_ID":56367,"ELEMENT_SET_NO":999,"REV_AT_EPOCH":6006,"BSTAR":0,"MEAN_MOTION_DOT":-2.5e-7,"MEAN_MOTION_DDOT":0},{"OBJECT_NAME":"O3B MPOWER F3","OBJECT_ID":"2023-059B","EPOCH":"2026-07-16T23:47:22.266816","CLASSIFICATION_TYPE":"U","MEAN_MOTION":5.00116408,"ECCENTRICITY":0.00066615,"INCLINATION":0.0636,"RA_OF_ASC_NODE":348.8691,"ARG_OF_PERICENTER":123.0339,"MEAN_ANOMALY":248.1638,"EPHEMERIS_TYPE":0,"NORAD_CAT_ID":56368,"ELEMENT_SET_NO":999,"REV_AT_EPOCH":5621,"BSTAR":0,"MEAN_MOTION_DOT":-2.5e-7,"MEAN_MOTION_DDOT":0},{"OBJECT_NAME":"O3B MPOWER F5","OBJECT_ID":"2023-175A","EPOCH":"2026-07-16T07:01:26.478048","CLASSIFICATION_TYPE":"U","MEAN_MOTION":5.00115806,"ECCENTRICITY":0.00055222,"INCLINATION":0.0524,"RA_OF_ASC_NODE":9.1024,"ARG_OF_PERICENTER":123.8848,"MEAN_ANOMALY":227.0551,"EPHEMERIS_TYPE":0,"NORAD_CAT_ID":58346,"ELEMENT_SET_NO":999,"REV_AT_EPOCH":5089,"BSTAR":0,"MEAN_MOTION_DOT":-2.5e-7,"MEAN_MOTION_DDOT":0},{"OBJECT_NAME":"O3B MPOWER F6","OBJECT_ID":"2023-175B","EPOCH":"2026-07-17T04:37:29.812224","CLASSIFICATION_TYPE":"U","MEAN_MOTION":5.00115762,"ECCENTRICITY":0.00044314,"INCLINATION":0.0542,"RA_OF_ASC_NODE":0.6059,"ARG_OF_PERICENTER":113.7886,"MEAN_ANOMALY":245.6477,"EPHEMERIS_TYPE":0,"NORAD_CAT_ID":58347,"ELEMENT_SET_NO":999,"REV_AT_EPOCH":4984,"BSTAR":0,"MEAN_MOTION_DOT":-2.5e-7,"MEAN_MOTION_DDOT":0},{"OBJECT_NAME":"O3B MPOWER F7","OBJECT_ID":"2024-244A","EPOCH":"2026-07-17T01:25:16.492224","CLASSIFICATION_TYPE":"U","MEAN_MOTION":5.00115306,"ECCENTRICITY":0.00059266,"INCLINATION":0.0658,"RA_OF_ASC_NODE":342.5208,"ARG_OF_PERICENTER":128.9251,"MEAN_ANOMALY":248.6133,"EPHEMERIS_TYPE":0,"NORAD_CAT_ID":62362,"ELEMENT_SET_NO":999,"REV_AT_EPOCH":2802,"BSTAR":0,"MEAN_MOTION_DOT":-2.5e-7,"MEAN_MOTION_DDOT":0},{"OBJECT_NAME":"O3B MPOWER F8","OBJECT_ID":"2024-244B","EPOCH":"2026-07-16T19:49:50.536704","CLASSIFICATION_TYPE":"U","MEAN_MOTION":5.00115,"ECCENTRICITY":0.00057404,"INCLINATION":0.0146,"RA_OF_ASC_NODE":6.3593,"ARG_OF_PERICENTER":97.6143,"MEAN_ANOMALY":256.0862,"EPHEMERIS_TYPE":0,"NORAD_CAT_ID":62363,"ELEMENT_SET_NO":999,"REV_AT_EPOCH":2235,"BSTAR":0,"MEAN_MOTION_DOT":-2.5e-7,"MEAN_MOTION_DDOT":0},{"OBJECT_NAME":"O3B MPOWER F9","OBJECT_ID":"2025-153A","EPOCH":"2026-07-15T08:39:00.821952","CLASSIFICATION_TYPE":"U","MEAN_MOTION":5.00115544,"ECCENTRICITY":0.00067313,"INCLINATION":0.0613,"RA_OF_ASC_NODE":5.5162,"ARG_OF_PERICENTER":126.663,"MEAN_ANOMALY":227.8743,"EPHEMERIS_TYPE":0,"NORAD_CAT_ID":64866,"ELEMENT_SET_NO":999,"REV_AT_EPOCH":2097,"BSTAR":0,"MEAN_MOTION_DOT":-2.4e-7,"MEAN_MOTION_DDOT":0},{"OBJECT_NAME":"O3B MPOWER F10","OBJECT_ID":"2025-153B","EPOCH":"2026-07-17T03:00:42.766272","CLASSIFICATION_TYPE":"U","MEAN_MOTION":5.00114925,"ECCENTRICITY":0.00024662,"INCLINATION":0.0585,"RA_OF_ASC_NODE":1.8632,"ARG_OF_PERICENTER":245.7787,"MEAN_ANOMALY":112.3279,"EPHEMERIS_TYPE":0,"NORAD_CAT_ID":64867,"ELEMENT_SET_NO":999,"REV_AT_EPOCH":2352,"BSTAR":0,"MEAN_MOTION_DOT":-2.5e-7,"MEAN_MOTION_DDOT":0}]}
